BEIDOU 3 (C01)          
1 36287U 10001A   23001.61264611 -.00000273  00000+0  00000+0 0  9992
2 36287   1.8618  51.3991 0002079 258.8249 151.7249  1.00268770 47502
BEIDOU 5 (C06)          
1 36828U 10036A   23001.20811679 -.00000040  00000+0  00000+0 0  9990
2 36828  54.2013 174.4218 0034653 182.3108 284.7555  1.00294364 45560
BEIDOU 6 (C04)          
1 37210U 10057A   23001.61648138 -.00000103  00000+0  00000+0 0  9992
2 37210   0.9029  50.5708 0006159 172.0486 260.2633  1.00272841 44622
BEIDOU 7 (C07)          
1 37256U 10068A   22363.70186751 -.00000204  00000+0  00000+0 0  9994
2 37256  49.8655 287.3080 0020747 206.3271 320.3295  1.00245673 44102
BEIDOU 8 (C08)          
1 37384U 11013A   22364.05821964 -.00000196  00000+0  00000+0 0  9998
2 37384  60.5737  52.3297 0023828 187.1152 345.6322  1.00256507 42985
BEIDOU 9 (C09)          
1 37763U 11038A   23001.45967154  .00000046  00000+0  00000+0 0  9994
2 37763  54.4781 176.9228 0101770 227.2059 317.1147  1.00282271 41984
BEIDOU 10 (C10)         
1 37948U 11073A   22365.21336796 -.00000175  00000+0  00000+0 0  9990
2 37948  49.9841 286.9431 0085888 221.0779 123.0891  1.00289445 40726
BEIDOU 11 (C05)         
1 38091U 12008A   23001.59634626  .00000063  00000+0  00000+0 0  9996
2 38091   2.0205  70.9402 0009974 310.3835 353.1352  1.00276218 39816
BEIDOU 12 (C11)         
1 38250U 12018A   23001.26976441 -.00000097  00000+0  00000+0 0  9990
2 38250  56.6270 347.0207 0025046 258.6618  99.1911  1.86234398 72768
BEIDOU 13 (C12)         
1 38251U 12018B   23001.30649156 -.00000098  00000+0  00000+0 0  9997
2 38251  56.5419 346.3309 0015877 261.6044 164.9765  1.86234233 72773
BEIDOU 15 (C14)         
1 38775U 12050B   22365.32716226 -.00000040  00000+0  00000+0 0  9998
2 38775  55.5229 105.0627 0011331 327.4669 357.9640  1.86231260 70120
BEIDOU 16 (C02)         
1 38953U 12059A   23001.52966503 -.00000166  00000+0  00000+0 0  9999
2 38953   1.4166  82.2618 0009294 289.6373   3.7214  1.00269554 37242
BEIDOU 17 (C31)         
1 40549U 15019A   22364.60104600 -.00000178  00000+0  00000+0 0  9997
2 40549  51.5465 310.4721 0035937 200.5905 256.5310  1.00254337 28407
BEIDOU 18 (C57)         
1 40748U 15037A   22365.52634425 -.00000096  00000+0  00000+0 0  9992
2 40748  55.7894 345.1030 0003635 333.0746 199.6436  1.86233340 50588
BEIDOU 19 (C58)         
1 40749U 15037B   23001.13521558 -.00000099  00000+0  00000+0 0  9993
2 40749  55.7930 345.0730 0006759 310.5697  44.4218  1.86232857 50588
BEIDOU 20 (C18)         
1 40938U 15053A   23001.17682229 -.00000140  00000+0  00000+0 0  9995
2 40938  51.1918 273.5964 0043347 194.5114 149.7586  1.00293285 26685
BEIDOU IGSO-6 (C13)     
1 41434U 16021A   23001.60340662 -.00000173  00000+0  00000+0 0  9999
2 41434  58.3893  50.7932 0049590 222.5201 140.1660  1.00287160 24820
BEIDOU-2 G7 (C03)       
1 41586U 16037A   23001.53498209 -.00000346  00000+0  00000+0 0  9999
2 41586   1.8231  70.0864 0007597 345.2881 348.6541  1.00268439 24128
BEIDOU-3 M1 (C19)       
1 43001U 17069A   22365.83824086 -.00000047  00000+0  00000+0 0  9998
2 43001  55.6758 105.0719 0008359 285.6813 178.8294  1.86231531 35071
BEIDOU-3 M2 (C20)       
1 43002U 17069B   22364.54632808 -.00000029  00000+0  00000+0 0  9995
2 43002  55.6750 105.1514 0006123 312.1222  49.0000  1.86231296 35044
BEIDOU-3 M3 (C27)       
1 43107U 18003A   22365.63303002 -.00000098  00000+0  00000+0 0  9998
2 43107  55.2406 345.9300 0003095  43.2042 132.9597  1.86232509 33823
BEIDOU-3 M4 (C28)       
1 43108U 18003B   22364.23174595 -.00000092  00000+0  00000+0 0  9991
2 43108  55.2377 345.9648 0004457 263.6778  95.7690  1.86230561 33795
BEIDOU-3 M5 (C21)       
1 43207U 18018A   23001.28709937 -.00000052  00000+0  00000+0 0  9991
2 43207  55.6336 105.1640 0003455 347.0573  12.9208  1.86231440 33220
BEIDOU-3 M6 (C22)       
1 43208U 18018B   23001.35374151 -.00000053  00000+0  00000+0 0  9997
2 43208  55.6339 105.1668 0006239 297.5009  62.4211  1.86231595 33225
BEIDOU-3 M7 (C29)       
1 43245U 18029A   22365.24007799 -.00000097  00000+0  00000+0 0  9999
2 43245  55.1479 343.6968 0001902 279.7604 263.5361  1.86232649 32357
BEIDOU-3 M8 (C30)       
1 43246U 18029B   22365.16785719 -.00000096  00000+0  10000-3 0  9990
2 43246  55.1440 343.7290 0004580 339.1683 202.4018  1.86232851 32343
BEIDOU IGSO-7 (C16)     
1 43539U 18057A   23001.39632740 -.00000044  00000+0  00000+0 0  9992
2 43539  55.0949 173.9791 0051718 224.8505 315.7943  1.00249614 16492
BEIDOU-3 M9 (C23)       
1 43581U 18062A   22365.46068656  .00000064  00000+0  00000+0 0  9995
2 43581  54.2246 225.3456 0002537 326.4040 263.0385  1.86231991 30098
BEIDOU-3 M10 (C24)      
1 43582U 18062B   22365.32914721  .00000062  00000+0  00000+0 0  9992
2 43582  54.2242 225.3395 0006940  23.8587 209.3463  1.86231595 30093
BEIDOU-3 M11 (C25)      
1 43602U 18067A   23001.26843153  .00000077  00000+0  00000+0 0  9997
2 43602  54.3084 223.9403 0007961  20.7141 163.2155  1.86231587 29603
BEIDOU-3 M12 (C26)      
1 43603U 18067B   23001.36322603  .00000078  00000+0  00000+0 0  9992
2 43603  54.3058 223.9035 0004932  14.5147 143.3114  1.86231540 29623
BEIDOU-3 M13 (C32)      
1 43622U 18072A   22365.68542422 -.00000046  00000+0  00000+0 0  9995
2 43622  55.6026 104.7328 0005554 276.0054 176.0661  1.86231396 29121
BEIDOU-3 M14 (C33)      
1 43623U 18072B   22365.40924609 -.00000042  00000+0  00000+0 0  9993
2 43623  55.6033 104.7345 0002803 305.1413  52.0065  1.86231385 29114
BEIDOU-3 M15 (C34)      
1 43647U 18078A   22364.23785196 -.00000092  00000+0  10000-3 0  9991
2 43647  55.0454 343.8718 0007374 358.5666 188.5846  1.86213796 28602
BEIDOU-3 M16 (C35)      
1 43648U 18078B   23001.32281330 -.00000102  00000+0  00000+0 0  9999
2 43648  55.0381 343.8075 0004268 355.5776  57.3725  1.86232214 28667
BEIDOU-3 G1 (C59)       
1 43683U 18085A   23001.57202400 -.00000269  00000+0  00000+0 0  9998
2 43683   1.0438 147.4790 0004009 186.2597 113.1386  1.00267104 15397
BEIDOU-3 M17 (C36)      
1 43706U 18093A   22364.78305252  .00000056  00000+0  00000+0 0  9999
2 43706  54.3065 225.2675 0007165 290.3310  69.6642  1.86231925 27998
BEIDOU-3 M18 (C37)      
1 43707U 18093B   22365.53348749  .00000065  00000+0  00000+0 0  9992
2 43707  54.3070 225.2334 0007222 323.2492 271.2964  1.86232308 27992
BEIDOU-3 IGSO-1 (C38)   
1 44204U 19023A   23001.53611524 -.00000231  00000+0  00000+0 0  9997
2 44204  56.8466  50.8556 0023821 197.1363 161.5734  1.00249879 13692
BEIDOU-2 G8             
1 44231U 19027A   23001.61343060 -.00000238  00000+0  00000+0 0  9994
2 44231   1.3455  80.5988 0006315 137.3950 248.3340  1.00274684 13410
BEIDOU-3 IGSO-2 (C39)   
1 44337U 19035A   23001.25943174 -.00000056  00000+0  00000+0 0  9990
2 44337  55.1135 169.9697 0029598 192.2865 308.1898  1.00297155 13030
BEIDOU-3 M23 (C45)      
1 44542U 19061A   23001.33046592  .00000075  00000+0  00000+0 0  9994
2 44542  54.5332 225.3960 0008848   0.5489 359.5293  1.86231490 22277
BEIDOU-3 M24 (C46)      
1 44543U 19061B   22364.13805926  .00000049  00000+0  00000+0 0  9999
2 44543  54.5313 225.4409 0005858 354.2846 247.4339  1.86231908 22225
BEIDOU-3 IGSO-3         
1 44709U 19073A   23001.17107807 -.00000217  00000+0  10000-3 0  9995
2 44709  56.9467 294.3270 0025829 182.2635 161.5139  1.00249028 11771
BEIDOU-3 M21            
1 44793U 19078A   23001.35414803 -.00000102  00000+0  10000-3 0  9993
2 44793  54.8920 343.7988 0006189 358.4979 121.6417  1.86232188 21136
BEIDOU-3 M22            
1 44794U 19078B   22365.24773100 -.00000098  00000+0  00000+0 0  9991
2 44794  54.8658 343.8241 0004506 347.3992  22.9473  1.86232666 21115
BEIDOU-3 M19            
1 44864U 19090A   23001.01146914 -.00000049  00000+0  00000+0 0  9999
2 44864  55.5373 104.9223 0016437 267.5123  89.1387  1.86231753 20705
BEIDOU-3 M20            
1 44865U 19090B   22365.87770100 -.00000048  00000+0  00000+0 0  9995
2 44865  55.5388 104.9586 0013963 281.5791  75.2250  1.86231736 20674
BEIDOU-3 G2             
1 45344U 20017A   23001.52888056 -.00000133  00000+0  00000+0 0  9994
2 45344   1.9909   2.7027 0001398 237.2657 131.3538  1.00272923 10608
BEIDOU-3 G3             
1 45807U 20040A   23001.53498209 -.00000343  00000+0  00000+0 0  9995
2 45807   1.0090 312.0667 0008765 340.8078 111.1894  1.00269212  9419
